{
  "norad_id": 53255,
  "name": "STARLINK-4142",
  "history": [
    {
      "epoch": "2026-03-28T18:26:26.157984",
      "apogee_km": 540.6126332905433,
      "perigee_km": 538.7621152704223,
      "latitude_deg": 51.00835891848435,
      "longitude_deg": -60.737602239940315,
      "semi_major_axis_km": 6917.8243742804825,
      "eccentricity": 0.00013375,
      "inclination_deg": 53.2164,
      "raan_deg": 108.474,
      "arg_perigee_deg": 77.8853,
      "mean_anomaly_deg": 282.2289,
      "mean_motion_rev_day": 15.08858326
    }
  ]
}